{"fetched_at":"2026-03-29T16:36:15Z","count":15609,"tles":[{"name":"STARLINK-2643","line1":"1 48367U 21038Q   26087.87240310  .00004389  00000+0  16014-3 0  9998","line2":"2 48367  53.1583 256.2723 0000738  46.3939 313.7123 15.30214796270191","category":"Starlink"}]}